start=new Date('2022-05-07T00:00:00.000Z').valueOf();
sats=[{"REF_FRAME":"TEME","TLE_LINE2":"2 48642  53.0532 299.6295 0001343  78.5892 281.5248 15.06402669 53092","EPOCH":"2022-05-06T18:12:19.755936","SITE":"AFETR","ELEMENT_SET_NO":"999","FILE":"3432290","OBJECT_TYPE":"PAYLOAD","MEAN_ANOMALY":"281.5248","MEAN_MOTION":"15.06402669","CENTER_NAME":"EARTH","ECCENTRICITY":"0.00013430","GP_ID":"202865513","SEMIMAJOR_AXIS":"6925.340","INCLINATION":"53.0532","PERIOD":"95.592","EPHEMERIS_TYPE":"0","LAUNCH_DATE":"2021-05-26","RA_OF_ASC_NODE":"299.6295","BSTAR":"0.00016468000000","OBJECT_NAME":"STARLINK-2646","RCS_SIZE":"LARGE","CLASSIFICATION_TYPE":"U","PERIAPSIS":"546.275","ARG_OF_PERICENTER":"78.5892","TLE_LINE1":"1 48642U 21044E   22126.75856199  .00002172  00000-0  16468-3 0  9998","MEAN_MOTION_DDOT":"0.0000000000000","MEAN_MOTION_DOT":"0.00002172","OBJECT_ID":"2021-044E","NORAD_CAT_ID":"48642","APOAPSIS":"548.135","TIME_SYSTEM":"UTC","MEAN_ELEMENT_THEORY":"SGP4","REV_AT_EPOCH":"5309","DECAY_DATE":null,"COUNTRY_CODE":"US"},{"INCLINATION":"53.0562","EPHEMERIS_TYPE":"0","PERIOD":"95.592","OBJECT_NAME":"STARLINK-2704","RCS_SIZE":"LARGE","CLASSIFICATION_TYPE":"U","RA_OF_ASC_NODE":"299.7001","LAUNCH_DATE":"2021-05-26","BSTAR":"-0.00006422700000","MEAN_MOTION_DDOT":"0.0000000000000","OBJECT_ID":"2021-044F","MEAN_MOTION_DOT":"-0.00001238","NORAD_CAT_ID":"48643","TLE_LINE1":"1 48643U 21044F   22126.74108216 -.00001238  00000-0 -64227-4 0  9999","MEAN_ELEMENT_THEORY":"SGP4","APOAPSIS":"548.196","TIME_SYSTEM":"UTC","PERIAPSIS":"546.253","ARG_OF_PERICENTER":"81.9790","COUNTRY_CODE":"US","DECAY_DATE":null,"REV_AT_EPOCH":"5315","REF_FRAME":"TEME","ELEMENT_SET_NO":"999","SITE":"AFETR","EPOCH":"2022-05-06T17:47:09.498624","TLE_LINE2":"2 48643  53.0562 299.7001 0001403  81.9790 278.1358 15.06396427 53159","FILE":"3432282","MEAN_ANOMALY":"278.1358","OBJECT_TYPE":"PAYLOAD","GP_ID":"202865957","ECCENTRICITY":"0.00014030","SEMIMAJOR_AXIS":"6925.360","CENTER_NAME":"EARTH","MEAN_MOTION":"15.06396427"},{"REF_FRAME":"TEME","ELEMENT_SET_NO":"999","SITE":"AFETR","TLE_LINE2":"2 48644  53.0554 299.7293 0001502  68.2283 291.8866 15.06405150 53092","EPOCH":"2022-05-06T17:41:50.802720","FILE":"3432285","MEAN_ANOMALY":"291.8866","OBJECT_TYPE":"PAYLOAD","GP_ID":"202865603","ECCENTRICITY":"0.00015020","SEMIMAJOR_AXIS":"6925.333","CENTER_NAME":"EARTH","MEAN_MOTION":"15.06405150","INCLINATION":"53.0554","EPHEMERIS_TYPE":"0","PERIOD":"95.592","OBJECT_NAME":"STARLINK-2695","RCS_SIZE":"LARGE","CLASSIFICATION_TYPE":"U","RA_OF_ASC_NODE":"299.7293","LAUNCH_DATE":"2021-05-26","BSTAR":"0.00010301000000","MEAN_MOTION_DDOT":"0.0000000000000","NORAD_CAT_ID":"48644","MEAN_MOTION_DOT":"0.00001253","OBJECT_ID":"2021-044G","TLE_LINE1":"1 48644U 21044G   22126.73739355  .00001253  00000-0  10301-3 0  9991","MEAN_ELEMENT_THEORY":"SGP4","APOAPSIS":"548.238","TIME_SYSTEM":"UTC","PERIAPSIS":"546.158","ARG_OF_PERICENTER":"68.2283","COUNTRY_CODE":"US","DECAY_DATE":null,"REV_AT_EPOCH":"5309"},{"OBJECT_ID":"2021-044H","MEAN_MOTION_DDOT":"0.0000000000000","MEAN_MOTION_DOT":"0.00000289","NORAD_CAT_ID":"48645","TLE_LINE1":"1 48645U 21044H   22126.53466771  .00000289  00000-0  38328-4 0  9997","MEAN_ELEMENT_THEORY":"SGP4","APOAPSIS":"548.242","TIME_SYSTEM":"UTC","PERIAPSIS":"546.205","ARG_OF_PERICENTER":"83.1598","COUNTRY_CODE":"US","DECAY_DATE":null,"REV_AT_EPOCH":"5222","INCLINATION":"53.0551","EPHEMERIS_TYPE":"0","PERIOD":"95.592","OBJECT_NAME":"STARLINK-2733","CLASSIFICATION_TYPE":"U","RCS_SIZE":"LARGE","RA_OF_ASC_NODE":"300.6336","LAUNCH_DATE":"2021-05-26","BSTAR":"0.00003832800000","MEAN_ANOMALY":"276.9558","OBJECT_TYPE":"PAYLOAD","GP_ID":"202861581","ECCENTRICITY":"0.00014710","SEMIMAJOR_AXIS":"6925.358","CENTER_NAME":"EARTH","MEAN_MOTION":"15.06396833","REF_FRAME":"TEME","ELEMENT_SET_NO":"999","SITE":"AFETR","EPOCH":"2022-05-06T12:49:55.290144","TLE_LINE2":"2 48645  53.0551 300.6336 0001471  83.1598 276.9558 15.06396833 52223","FILE":"3432208"},{"INCLINATION":"53.0560","PERIOD":"95.593","EPHEMERIS_TYPE":"0","LAUNCH_DATE":"2021-05-26","RA_OF_ASC_NODE":"302.1230","BSTAR":"-0.00008358400000","OBJECT_NAME":"STARLINK-2732","CLASSIFICATION_TYPE":"U","RCS_SIZE":"LARGE","PERIAPSIS":"546.461","ARG_OF_PERICENTER":"92.9220","TLE_LINE1":"1 48646U 21044J   22126.19925463 -.00001526  00000-0 -83584-4 0  9999","MEAN_MOTION_DDOT":"0.0000000000000","NORAD_CAT_ID":"48646","MEAN_MOTION_DOT":"-0.00001526","OBJECT_ID":"2021-044J","APOAPSIS":"548.027","TIME_SYSTEM":"UTC","MEAN_ELEMENT_THEORY":"SGP4","REV_AT_EPOCH":"5217","DECAY_DATE":null,"COUNTRY_CODE":"US","REF_FRAME":"TEME","EPOCH":"2022-05-06T04:46:55.600032","TLE_LINE2":"2 48646  53.0560 302.1230 0001130  92.9220 267.1898 15.06390083 52170","ELEMENT_SET_NO":"999","SITE":"AFETR","FILE":"3432208","OBJECT_TYPE":"PAYLOAD","MEAN_ANOMALY":"267.1898","MEAN_MOTION":"15.06390083","CENTER_NAME":"EARTH","ECCENTRICITY":"0.00011300","GP_ID":"202860855","SEMIMAJOR_AXIS":"6925.379"},{"TLE_LINE2":"2 48647  53.0544 300.9692 0001436  84.9614 275.1539 15.06404780 52214","EPOCH":"2022-05-06T11:03:45.665280","ELEMENT_SET_NO":"999","SITE":"AFETR","REF_FRAME":"TEME","FILE":"3432208","MEAN_ANOMALY":"275.1539","OBJECT_TYPE":"PAYLOAD","SEMIMAJOR_AXIS":"6925.334","ECCENTRICITY":"0.00014360","GP_ID":"202861108","MEAN_MOTION":"15.06404780","CENTER_NAME":"EARTH","PERIOD":"95.592","EPHEMERIS_TYPE":"0","INCLINATION":"53.0544","CLASSIFICATION_TYPE":"U","RCS_SIZE":"LARGE","OBJECT_NAME":"STARLINK-2691","BSTAR":"0.00008037300000","LAUNCH_DATE":"2021-05-26","RA_OF_ASC_NODE":"300.9692","TIME_SYSTEM":"UTC","APOAPSIS":"548.193","MEAN_ELEMENT_THEORY":"SGP4","TLE_LINE1":"1 48647U 21044K   22126.46094520  .00000916  00000-0  80373-4 0  9994","MEAN_MOTION_DDOT":"0.0000000000000","MEAN_MOTION_DOT":"0.00000916","NORAD_CAT_ID":"48647","OBJECT_ID":"2021-044K","ARG_OF_PERICENTER":"84.9614","PERIAPSIS":"546.204","DECAY_DATE":null,"COUNTRY_CODE":"US","REV_AT_EPOCH":"5221"},{"PERIOD":"95.592","EPHEMERIS_TYPE":"0","INCLINATION":"53.0544","BSTAR":"0.00005915000000","LAUNCH_DATE":"2021-05-26","RA_OF_ASC_NODE":"300.6719","RCS_SIZE":"LARGE","CLASSIFICATION_TYPE":"U","OBJECT_NAME":"STARLINK-2521","ARG_OF_PERICENTER":"79.7107","PERIAPSIS":"546.248","APOAPSIS":"548.189","TIME_SYSTEM":"UTC","MEAN_ELEMENT_THEORY":"SGP4","TLE_LINE1":"1 48648U 21044L   22126.52634874  .00000600  00000-0  59150-4 0  9993","MEAN_MOTION_DDOT":"0.0000000000000","OBJECT_ID":"2021-044L","MEAN_MOTION_DOT":"0.00000600","NORAD_CAT_ID":"48648","REV_AT_EPOCH":"5306","DECAY_DATE":null,"COUNTRY_CODE":"US","EPOCH":"2022-05-06T12:37:56.531136","TLE_LINE2":"2 48648  53.0544 300.6719 0001401  79.7107 280.4039 15.06398424 53068","ELEMENT_SET_NO":"999","SITE":"AFETR","REF_FRAME":"TEME","FILE":"3431646","OBJECT_TYPE":"PAYLOAD","MEAN_ANOMALY":"280.4039","MEAN_MOTION":"15.06398424","CENTER_NAME":"EARTH","SEMIMAJOR_AXIS":"6925.353","ECCENTRICITY":"0.00014010","GP_ID":"202825406"},{"REV_AT_EPOCH":"5304","COUNTRY_CODE":"US","DECAY_DATE":null,"PERIAPSIS":"546.144","ARG_OF_PERICENTER":"54.9799","MEAN_MOTION_DDOT":"0.0000000000000","MEAN_MOTION_DOT":"-0.00000186","OBJECT_ID":"2021-044M","NORAD_CAT_ID":"48649","TLE_LINE1":"1 48649U 21044M   22126.45726043 -.00000186  00000-0  64073-5 0  9997","MEAN_ELEMENT_THEORY":"SGP4","APOAPSIS":"548.281","TIME_SYSTEM":"UTC","RA_OF_ASC_NODE":"300.9693","LAUNCH_DATE":"2021-05-26","BSTAR":"0.00000640730000","OBJECT_NAME":"STARLINK-2673","RCS_SIZE":"LARGE","CLASSIFICATION_TYPE":"U","INCLINATION":"53.0552","EPHEMERIS_TYPE":"0","PERIOD":"95.592","CENTER_NAME":"EARTH","MEAN_MOTION":"15.06400385","GP_ID":"202825468","ECCENTRICITY":"0.00015430","SEMIMAJOR_AXIS":"6925.347","OBJECT_TYPE":"PAYLOAD","MEAN_ANOMALY":"305.1335","FILE":"3431654","REF_FRAME":"TEME","SITE":"AFETR","ELEMENT_SET_NO":"999","TLE_LINE2":"2 48649  53.0552 300.9693 0001543  54.9799 305.1335 15.06400385 53043","EPOCH":"2022-05-06T10:58:27.301152"},{"OBJECT_NAME":"STARLINK-2672","RCS_SIZE":"LARGE","CLASSIFICATION_TYPE":"U","RA_OF_ASC_NODE":"300.9984","LAUNCH_DATE":"2021-05-26","BSTAR":"-0.00004126600000","INCLINATION":"53.0554","EPHEMERIS_TYPE":"0","PERIOD":"95.593","COUNTRY_CODE":"US","DECAY_DATE":null,"REV_AT_EPOCH":"5304","MEAN_MOTION_DOT":"-0.00000896","MEAN_MOTION_DDOT":"0.0000000000000","NORAD_CAT_ID":"48650","OBJECT_ID":"2021-044N","TLE_LINE1":"1 48650U 21044N   22126.45358211 -.00000896  00000-0 -41266-4 0  9994","MEAN_ELEMENT_THEORY":"SGP4","APOAPSIS":"548.244","TIME_SYSTEM":"UTC","PERIAPSIS":"546.229","ARG_OF_PERICENTER":"87.7466","FILE":"3431655","REF_FRAME":"TEME","ELEMENT_SET_NO":"999","SITE":"AFETR","EPOCH":"2022-05-06T10:53:09.494304","TLE_LINE2":"2 48650  53.0554 300.9984 0001455  87.7466 272.3689 15.06392466 53044","GP_ID":"202825503","ECCENTRICITY":"0.00014550","SEMIMAJOR_AXIS":"6925.372","CENTER_NAME":"EARTH","MEAN_MOTION":"15.06392466","MEAN_ANOMALY":"272.3689","OBJECT_TYPE":"PAYLOAD"},{"SEMIMAJOR_AXIS":"6925.326","GP_ID":"202861609","ECCENTRICITY":"0.00014440","CENTER_NAME":"EARTH","MEAN_MOTION":"15.06407223","MEAN_ANOMALY":"280.4949","OBJECT_TYPE":"PAYLOAD","FILE":"3432208","ELEMENT_SET_NO":"999","SITE":"AFETR","TLE_LINE2":"2 48651  53.0559 302.2077 0001444  79.6203 280.4949 15.06407223 52164","EPOCH":"2022-05-06T04:25:40.757664","REF_FRAME":"TEME","COUNTRY_CODE":"US","DECAY_DATE":null,"REV_AT_EPOCH":"5216","MEAN_ELEMENT_THEORY":"SGP4","TIME_SYSTEM":"UTC","APOAPSIS":"548.191","MEAN_MOTION_DDOT":"0.0000000000000","OBJECT_ID":"2021-044P","MEAN_MOTION_DOT":"0.00000637","NORAD_CAT_ID":"48651","TLE_LINE1":"1 48651U 21044P   22126.18449951  .00000637  00000-0  61663-4 0  9991","ARG_OF_PERICENTER":"79.6203","PERIAPSIS":"546.191","RCS_SIZE":"LARGE","CLASSIFICATION_TYPE":"U","OBJECT_NAME":"STARLINK-2731","BSTAR":"0.00006166300000","RA_OF_ASC_NODE":"302.2077","LAUNCH_DATE":"2021-05-26","EPHEMERIS_TYPE":"0","PERIOD":"95.592","INCLINATION":"53.0559"}];
